EUTELSAT 8 WEST B       
1 40875U 15039B   25310.43308544 -.00000057  00000+0  00000+0 0  9995
2 40875   0.0689 351.5365 0003947 238.0094 324.2742  1.00271702 37426
EUTELSAT 9B             
1 41310U 16005A   25310.53527610  .00000071  00000+0  00000+0 0  9997
2 41310   0.0735  75.2468 0004455 175.9021 356.5679  1.00272013 35882
EUTELSAT 65 WEST A      
1 41382U 16014A   25310.84641031 -.00000269  00000+0  00000+0 0  9994
2 41382   0.0876  54.3730 0002674 182.5039  48.9633  1.00272584 35303
EUTELSAT 117 WEST B     
1 41589U 16038B   25310.36770558 -.00000002  00000+0  00000+0 0  9998
2 41589   0.0185 109.4155 0000383 299.7616  12.0570  1.00271519 34426
EUTELSAT 172B           
1 42741U 17029B   25310.66929691  .00000003  00000+0  00000+0 0  9997
2 42741   0.0302 149.5584 0000198 107.0312 202.5091  1.00271357 31507
EUTELSAT 7C             
1 44334U 19034B   25310.17822567  .00000058  00000+0  00000+0 0  9995
2 44334   0.0684 184.1602 0003344  25.6202 267.0483  1.00270743  4593
EUTELSAT 5 WEST B       
1 44624U 19067A   25310.38989237 -.00000033  00000+0  00000+0 0  9998
2 44624   0.0712 335.3503 0003471 253.7692 312.1394  1.00269654 22205
EUTELSAT KONNECT        
1 45027U 20005B   25310.03557160  .00000059  00000+0  00000+0 0  9995
2 45027   0.0664  90.5123 0001447 184.0203 150.9894  1.00268266 22089
